{"type": "FeatureCollection", "features": [ {"type": "Feature", "properties": {"norad_id": 42741, "name": "EUTELSAT 172B", "group": "eutelsat", "lat": 0.017265000344521515, "lon": 128.46689435445498, "alt_km": 35785.95494888346, "timestamp": "2025-12-25T14:48:24.472755+00:00", "meta": {"OBJECT_NAME": "EUTELSAT 172B", "OBJECT_ID": "2017-029B", "EPOCH": "2025-12-24T22:28:24.707712", "MEAN_MOTION": 1.00270189, "ECCENTRICITY": 1.296e-05, "INCLINATION": 0.0321, "RA_OF_ASC_NODE": 134.3587, "ARG_OF_PERICENTER": 357.8756, "MEAN_ANOMALY": 110.5732, "EPHEMERIS_TYPE": 0, "CLASSIFICATION_TYPE": "U", "NORAD_CAT_ID": 42741, "ELEMENT_SET_NO": 999, "REV_AT_EPOCH": 3198, "BSTAR": 0, "MEAN_MOTION_DOT": 1.5e-07, "MEAN_MOTION_DDOT": 0}, "tle": {"line1": "1 42741U 17029B   25358.93639708  .00000015  00000+0  00000+0 0  9999", "line2": "2 42741   0.0321 134.3587 0000129 357.8756 110.5732  1.00270189 31988"}}, "geometry": {"type": "Point", "coordinates": [128.46689435445498, 0.017265000344521515]}}, {"type": "Feature", "properties": {"norad_id": 44334, "name": "EUTELSAT 7C", "group": "eutelsat", "lat": 0.023014430659219036, "lon": -36.5258727840661, "alt_km": 35780.74680151234, "timestamp": "2025-12-25T14:48:24.472766+00:00", "meta": {"OBJECT_NAME": "EUTELSAT 7C", "OBJECT_ID": "2019-034B", "EPOCH": "2025-12-24T14:50:38.546016", "MEAN_MOTION": 1.00270796, "ECCENTRICITY": 0.00031593, "INCLINATION": 0.0726, "RA_OF_ASC_NODE": 177.7928, "ARG_OF_PERICENTER": 79.9691, "MEAN_ANOMALY": 65.2631, "EPHEMERIS_TYPE": 0, "CLASSIFICATION_TYPE": "U", "NORAD_CAT_ID": 44334, "ELEMENT_SET_NO": 999, "REV_AT_EPOCH": 508, "BSTAR": 0, "MEAN_MOTION_DOT": 6.9e-07, "MEAN_MOTION_DDOT": 0}, "tle": {"line1": "1 44334U 19034B   25358.61850169  .00000069  00000+0  00000+0 0  9997", "line2": "2 44334   0.0726 177.7928 0003159  79.9691  65.2631  1.00270796  5083"}}, "geometry": {"type": "Point", "coordinates": [-36.5258727840661, 0.023014430659219036]}}, {"type": "Feature", "properties": {"norad_id": 44624, "name": "EUTELSAT 5 WEST B", "group": "eutelsat", "lat": -0.05022025768095102, "lon": -48.50689199450698, "alt_km": 35775.70993828006, "timestamp": "2025-12-25T14:48:24.472776+00:00", "meta": {"OBJECT_NAME": "EUTELSAT 5 WEST B", "OBJECT_ID": "2019-067A", "EPOCH": "2025-12-25T06:11:32.851104", "MEAN_MOTION": 1.0027129, "ECCENTRICITY": 0.00031685, "INCLINATION": 0.063, "RA_OF_ASC_NODE": 344.5526, "ARG_OF_PERICENTER": 288.486, "MEAN_ANOMALY": 268.8705, "EPHEMERIS_TYPE": 0, "CLASSIFICATION_TYPE": "U", "NORAD_CAT_ID": 44624, "ELEMENT_SET_NO": 999, "REV_AT_EPOCH": 2269, "BSTAR": 0, "MEAN_MOTION_DOT": -2.1e-07, "MEAN_MOTION_DDOT": 0}, "tle": {"line1": "1 44624U 19067A   25359.25801911 -.00000021  00000+0  00000+0 0  9996", "line2": "2 44624   0.0630 344.5526 0003168 288.4860 268.8705  1.00271290 22691"}}, "geometry": {"type": "Point", "coordinates": [-48.50689199450698, -0.05022025768095102]}}, {"type": "Feature", "properties": {"norad_id": 45027, "name": "EUTELSAT KONNECT", "group": "eutelsat", "lat": -0.06786767822613984, "lon": -36.323058344212434, "alt_km": 35782.025308696604, "timestamp": "2025-12-25T14:48:24.472787+00:00", "meta": {"OBJECT_NAME": "EUTELSAT KONNECT", "OBJECT_ID": "2020-005B", "EPOCH": "2025-12-24T14:50:46.034304", "MEAN_MOTION": 1.00269906, "ECCENTRICITY": 0.00014622, "INCLINATION": 0.0704, "RA_OF_ASC_NODE": 94.2724, "ARG_OF_PERICENTER": 186.2921, "MEAN_ANOMALY": 42.7194, "EPHEMERIS_TYPE": 0, "CLASSIFICATION_TYPE": "U", "NORAD_CAT_ID": 45027, "ELEMENT_SET_NO": 999, "REV_AT_EPOCH": 2258, "BSTAR": 0, "MEAN_MOTION_DOT": 7e-07, "MEAN_MOTION_DDOT": 0}, "tle": {"line1": "1 45027U 20005B   25358.61858836  .00000070  00000+0  00000+0 0  9998", "line2": "2 45027   0.0704  94.2724 0001462 186.2921  42.7194  1.00269906 22588"}}, "geometry": {"type": "Point", "coordinates": [-36.323058344212434, -0.06786767822613984]}}, {"type": "Feature", "properties": {"norad_id": 49056, "name": "EUTELSAT QUANTUM", "group": "eutelsat", "lat": -0.005570491037039885, "lon": 4.209831270980651, "alt_km": 35784.23954337035, "timestamp": "2025-12-25T14:48:24.472797+00:00", "meta": {"OBJECT_NAME": "EUTELSAT QUANTUM", "OBJECT_ID": "2021-069B", "EPOCH": "2025-12-24T23:35:55.741056", "MEAN_MOTION": 1.00270986, "ECCENTRICITY": 0.00034804, "INCLINATION": 0.0115, "RA_OF_ASC_NODE": 15.7317, "ARG_OF_PERICENTER": 266.2745, "MEAN_ANOMALY": 213.4278, "EPHEMERIS_TYPE": 0, "CLASSIFICATION_TYPE": "U", "NORAD_CAT_ID": 49056, "ELEMENT_SET_NO": 999, "REV_AT_EPOCH": 1618, "BSTAR": 0, "MEAN_MOTION_DOT": 1.47e-06, "MEAN_MOTION_DDOT": 0}, "tle": {"line1": "1 49056U 21069B   25358.98328404  .00000147  00000+0  00000+0 0  9993", "line2": "2 49056   0.0115  15.7317 0003480 266.2745 213.4278  1.00270986 16180"}}, "geometry": {"type": "Point", "coordinates": [4.209831270980651, -0.005570491037039885]}}, {"type": "Feature", "properties": {"norad_id": 53765, "name": "EUTELSAT KONNECT VHTS", "group": "eutelsat", "lat": -0.053789668961624085, "lon": -40.79481950787449, "alt_km": 35783.733107290165, "timestamp": "2025-12-25T14:48:24.472807+00:00", "meta": {"OBJECT_NAME": "EUTELSAT KONNECT VHTS", "OBJECT_ID": "2022-110A", "EPOCH": "2025-12-24T21:40:21.809280", "MEAN_MOTION": 1.00267478, "ECCENTRICITY": 0.0002493, "INCLINATION": 0.0601, "RA_OF_ASC_NODE": 98.2899, "ARG_OF_PERICENTER": 150.2235, "MEAN_ANOMALY": 172.9674, "EPHEMERIS_TYPE": 0, "CLASSIFICATION_TYPE": "U", "NORAD_CAT_ID": 53765, "ELEMENT_SET_NO": 999, "REV_AT_EPOCH": 507, "BSTAR": 0, "MEAN_MOTION_DOT": 3.8e-07, "MEAN_MOTION_DDOT": 0}, "tle": {"line1": "1 53765U 22110A   25358.90303020  .00000038  00000+0  00000+0 0  9991", "line2": "2 53765   0.0601  98.2899 0002493 150.2235 172.9674  1.00267478  5079"}}, "geometry": {"type": "Point", "coordinates": [-40.79481950787449, -0.053789668961624085]}}, {"type": "Feature", "properties": {"norad_id": 54048, "name": "EUTELSAT HOTBIRD 13F", "group": "eutelsat", "lat": 0.020065765274450822, "lon": -30.552065184770807, "alt_km": 35778.44339179127, "timestamp": "2025-12-25T14:48:24.472818+00:00", "meta": {"OBJECT_NAME": "EUTELSAT HOTBIRD 13F", "OBJECT_ID": "2022-134A", "EPOCH": "2025-12-24T16:35:06.042624", "MEAN_MOTION": 1.00270762, "ECCENTRICITY": 0.00022006, "INCLINATION": 0.055, "RA_OF_ASC_NODE": 289.1731, "ARG_OF_PERICENTER": 72.2821, "MEAN_ANOMALY": 353.7761, "EPHEMERIS_TYPE": 0, "CLASSIFICATION_TYPE": "U", "NORAD_CAT_ID": 54048, "ELEMENT_SET_NO": 999, "REV_AT_EPOCH": 1162, "BSTAR": 0, "MEAN_MOTION_DOT": 1.08e-06, "MEAN_MOTION_DDOT": 0}, "tle": {"line1": "1 54048U 22134A   25358.69104216  .00000108  00000+0  00000+0 0  9992", "line2": "2 54048   0.0550 289.1731 0002200  72.2821 353.7761  1.00270762 11627"}}, "geometry": {"type": "Point", "coordinates": [-30.552065184770807, 0.020065765274450822]}}, {"type": "Feature", "properties": {"norad_id": 54225, "name": "EUTELSAT HOTBIRD 13G", "group": "eutelsat", "lat": 0.03125346285770888, "lon": -30.54237301375122, "alt_km": 35793.234737168095, "timestamp": "2025-12-25T14:48:24.472828+00:00", "meta": {"OBJECT_NAME": "EUTELSAT HOTBIRD 13G", "OBJECT_ID": "2022-146A", "EPOCH": "2025-12-24T00:28:38.654112", "MEAN_MOTION": 1.00268836, "ECCENTRICITY": 0.00017131, "INCLINATION": 0.0535, "RA_OF_ASC_NODE": 227.8066, "ARG_OF_PERICENTER": 307.349, "MEAN_ANOMALY": 297.8001, "EPHEMERIS_TYPE": 0, "CLASSIFICATION_TYPE": "U", "NORAD_CAT_ID": 54225, "ELEMENT_SET_NO": 999, "REV_AT_EPOCH": 571, "BSTAR": 0, "MEAN_MOTION_DOT": 1.08e-06, "MEAN_MOTION_DDOT": 0}, "tle": {"line1": "1 54225U 22146A   25358.01989183  .00000108  00000+0  00000+0 0  9992", "line2": "2 54225   0.0535 227.8066 0001713 307.3490 297.8001  1.00268836  5716"}}, "geometry": {"type": "Point", "coordinates": [-30.54237301375122, 0.03125346285770888]}}, {"type": "Feature", "properties": {"norad_id": 54259, "name": "EUTELSAT 10B", "group": "eutelsat", "lat": -0.058983945172147945, "lon": -33.507189437446215, "alt_km": 35789.383379129926, "timestamp": "2025-12-25T14:48:24.472839+00:00", "meta": {"OBJECT_NAME": "EUTELSAT 10B", "OBJECT_ID": "2022-157A", "EPOCH": "2025-12-25T01:07:54.431328", "MEAN_MOTION": 1.00270064, "ECCENTRICITY": 6.834e-05, "INCLINATION": 0.06, "RA_OF_ASC_NODE": 95.6031, "ARG_OF_PERICENTER": 57.2113, "MEAN_ANOMALY": 328.0007, "EPHEMERIS_TYPE": 0, "CLASSIFICATION_TYPE": "U", "NORAD_CAT_ID": 54259, "ELEMENT_SET_NO": 999, "REV_AT_EPOCH": 1128, "BSTAR": 0, "MEAN_MOTION_DOT": 8.9e-07, "MEAN_MOTION_DDOT": 0}, "tle": {"line1": "1 54259U 22157A   25359.04715777  .00000089  00000+0  00000+0 0  9999", "line2": "2 54259   0.0600  95.6031 0000683  57.2113 328.0007  1.00270064 11285"}}, "geometry": {"type": "Point", "coordinates": [-33.507189437446215, -0.058983945172147945]}}, {"type": "Feature", "properties": {"norad_id": 59346, "name": "EUTELSAT 36D", "group": "eutelsat", "lat": -0.022222391919062973, "lon": -7.637774561361303, "alt_km": 35782.36693532856, "timestamp": "2025-12-25T14:48:24.472850+00:00", "meta": {"OBJECT_NAME": "EUTELSAT 36D", "OBJECT_ID": "2024-059A", "EPOCH": "2025-12-24T21:49:50.901024", "MEAN_MOTION": 1.00275345, "ECCENTRICITY": 6.34e-05, "INCLINATION": 0.0185, "RA_OF_ASC_NODE": 36.8149, "ARG_OF_PERICENTER": 305.8613, "MEAN_ANOMALY": 114.3448, "EPHEMERIS_TYPE": 0, "CLASSIFICATION_TYPE": "U", "NORAD_CAT_ID": 59346, "ELEMENT_SET_NO": 999, "REV_AT_EPOCH": 640, "BSTAR": 0, "MEAN_MOTION_DOT": 1.77e-06, "MEAN_MOTION_DDOT": 0}, "tle": {"line1": "1 59346U 24059A   25358.90961691  .00000177  00000+0  00000+0 0  9994", "line2": "2 59346   0.0185  36.8149 0000634 305.8613 114.3448  1.00275345  6405"}}, "geometry": {"type": "Point", "coordinates": [-7.637774561361303, -0.022222391919062973]}}]}